[{"OBJECT_NAME":"O\/OREOS (USA 219)","OBJECT_ID":"2010-062C","EPOCH":"2026-03-09T22:23:02.393376","MEAN_MOTION":14.93281746,"ECCENTRICITY":0.0016854,"INCLINATION":71.9709,"RA_OF_ASC_NODE":305.0929,"ARG_OF_PERICENTER":256.1776,"MEAN_ANOMALY":103.7519,"EPHEMERIS_TYPE":0,"CLASSIFICATION_TYPE":"U","NORAD_CAT_ID":37224,"ELEMENT_SET_NO":999,"REV_AT_EPOCH":10182,"BSTAR":0.00028679427,"MEAN_MOTION_DOT":2.95e-5,"MEAN_MOTION_DDOT":0},{"OBJECT_NAME":"DMSP 5D-2 F12 DEB","OBJECT_ID":"1994-057D","EPOCH":"2026-03-09T16:53:24.857088","MEAN_MOTION":14.9537003,"ECCENTRICITY":0.00045084,"INCLINATION":98.0659,"RA_OF_ASC_NODE":110.2499,"ARG_OF_PERICENTER":136.2971,"MEAN_ANOMALY":344.9264,"EPHEMERIS_TYPE":0,"CLASSIFICATION_TYPE":"U","NORAD_CAT_ID":23250,"ELEMENT_SET_NO":999,"REV_AT_EPOCH":65299,"BSTAR":0.0022486615,"MEAN_MOTION_DOT":0.00024839,"MEAN_MOTION_DDOT":0}]
